[{"OBJECT_NAME":"STARLINK-32649","OBJECT_ID":"2024-239E","EPOCH":"2026-03-20T10:19:19.084800","MEAN_MOTION":15.30187044,"ECCENTRICITY":9.93e-5,"INCLINATION":53.1608,"RA_OF_ASC_NODE":143.6584,"ARG_OF_PERICENTER":83.3967,"MEAN_ANOMALY":276.7147,"EPHEMERIS_TYPE":0,"CLASSIFICATION_TYPE":"U","NORAD_CAT_ID":62305,"ELEMENT_SET_NO":999,"REV_AT_EPOCH":7103,"BSTAR":0.00085829,"MEAN_MOTION_DOT":0.00025137,"MEAN_MOTION_DDOT":0},{"OBJECT_NAME":"STARLINK-32633","OBJECT_ID":"2024-239F","EPOCH":"2026-03-20T11:01:51.670848","MEAN_MOTION":15.3020258,"ECCENTRICITY":0.0001221,"INCLINATION":53.1562,"RA_OF_ASC_NODE":143.8349,"ARG_OF_PERICENTER":70.0305,"MEAN_ANOMALY":290.0827,"EPHEMERIS_TYPE":0,"CLASSIFICATION_TYPE":"U","NORAD_CAT_ID":62306,"ELEMENT_SET_NO":999,"REV_AT_EPOCH":7103,"BSTAR":0.00012268,"MEAN_MOTION_DOT":3.276e-5,"MEAN_MOTION_DDOT":0},{"OBJECT_NAME":"STARLINK-32646","OBJECT_ID":"2024-239G","EPOCH":"2026-03-20T10:38:16.418976","MEAN_MOTION":15.30199366,"ECCENTRICITY":0.0001467,"INCLINATION":53.1575,"RA_OF_ASC_NODE":130.951,"ARG_OF_PERICENTER":64.2161,"MEAN_ANOMALY":295.8991,"EPHEMERIS_TYPE":0,"CLASSIFICATION_TYPE":"U","NORAD_CAT_ID":62307,"ELEMENT_SET_NO":999,"REV_AT_EPOCH":7121,"BSTAR":0.0003113,"MEAN_MOTION_DOT":8.871e-5,"MEAN_MOTION_DDOT":0},{"OBJECT_NAME":"STARLINK-32706","OBJECT_ID":"2024-239H","EPOCH":"2026-03-20T10:10:21.762336","MEAN_MOTION":15.30206866,"ECCENTRICITY":0.0001134,"INCLINATION":53.1579,"RA_OF_ASC_NODE":144.3235,"ARG_OF_PERICENTER":97.3848,"MEAN_ANOMALY":262.7282,"EPHEMERIS_TYPE":0,"CLASSIFICATION_TYPE":"U","NORAD_CAT_ID":62308,"ELEMENT_SET_NO":999,"REV_AT_EPOCH":7102,"BSTAR":0.00060837,"MEAN_MOTION_DOT":0.00017706,"MEAN_MOTION_DDOT":0},{"OBJECT_NAME":"STARLINK-32678","OBJECT_ID":"2024-239J","EPOCH":"2026-03-20T13:02:28.615200","MEAN_MOTION":15.30209679,"ECCENTRICITY":0.0001221,"INCLINATION":53.1585,"RA_OF_ASC_NODE":130.8664,"ARG_OF_PERICENTER":82.1764,"MEAN_ANOMALY":277.9376,"EPHEMERIS_TYPE":0,"CLASSIFICATION_TYPE":"U","NORAD_CAT_ID":62309,"ELEMENT_SET_NO":999,"REV_AT_EPOCH":7122,"BSTAR":0.00063745,"MEAN_MOTION_DOT":0.00018573,"MEAN_MOTION_DDOT":0},{"OBJECT_NAME":"STARLINK-32696","OBJECT_ID":"2024-239K","EPOCH":"2026-03-20T10:05:48.269184","MEAN_MOTION":15.30196005,"ECCENTRICITY":8.99e-5,"INCLINATION":53.1583,"RA_OF_ASC_NODE":144.3072,"ARG_OF_PERICENTER":91.2504,"MEAN_ANOMALY":268.8599,"EPHEMERIS_TYPE":0,"CLASSIFICATION_TYPE":"U","NORAD_CAT_ID":62310,"ELEMENT_SET_NO":999,"REV_AT_EPOCH":7102,"BSTAR":0.00018326,"MEAN_MOTION_DOT":5.072e-5,"MEAN_MOTION_DDOT":0},{"OBJECT_NAME":"STARLINK-32700","OBJECT_ID":"2024-239L","EPOCH":"2026-03-20T12:57:55.599840","MEAN_MOTION":15.30238116,"ECCENTRICITY":0.0001272,"INCLINATION":53.1594,"RA_OF_ASC_NODE":130.8498,"ARG_OF_PERICENTER":56.4607,"MEAN_ANOMALY":303.6515,"EPHEMERIS_TYPE":0,"CLASSIFICATION_TYPE":"U","NORAD_CAT_ID":62311,"ELEMENT_SET_NO":999,"REV_AT_EPOCH":7121,"BSTAR":0.0011134,"MEAN_MOTION_DOT":0.000328,"MEAN_MOTION_DDOT":0},{"OBJECT_NAME":"STARLINK-32698","OBJECT_ID":"2024-239M","EPOCH":"2026-03-20T10:14:55.177728","MEAN_MOTION":15.30206542,"ECCENTRICITY":7.16e-5,"INCLINATION":53.1588,"RA_OF_ASC_NODE":144.3399,"ARG_OF_PERICENTER":88.5654,"MEAN_ANOMALY":271.5428,"EPHEMERIS_TYPE":0,"CLASSIFICATION_TYPE":"U","NORAD_CAT_ID":62312,"ELEMENT_SET_NO":999,"REV_AT_EPOCH":7102,"BSTAR":0.00042043,"MEAN_MOTION_DOT":0.00012116,"MEAN_MOTION_DDOT":0},{"OBJECT_NAME":"STARLINK-32634","OBJECT_ID":"2024-239N","EPOCH":"2026-03-20T09:08:46.799808","MEAN_MOTION":15.30196754,"ECCENTRICITY":0.0001178,"INCLINATION":53.1578,"RA_OF_ASC_NODE":131.2739,"ARG_OF_PERICENTER":93.241,"MEAN_ANOMALY":266.8725,"EPHEMERIS_TYPE":0,"CLASSIFICATION_TYPE":"U","NORAD_CAT_ID":62313,"ELEMENT_SET_NO":999,"REV_AT_EPOCH":7120,"BSTAR":0.00024579,"MEAN_MOTION_DOT":6.927e-5,"MEAN_MOTION_DDOT":0},{"OBJECT_NAME":"STARLINK-32651","OBJECT_ID":"2024-239P","EPOCH":"2026-03-20T10:58:49.418688","MEAN_MOTION":15.30200363,"ECCENTRICITY":0.0001199,"INCLINATION":53.1574,"RA_OF_ASC_NODE":143.8219,"ARG_OF_PERICENTER":87.1003,"MEAN_ANOMALY":273.0134,"EPHEMERIS_TYPE":0,"CLASSIFICATION_TYPE":"U","NORAD_CAT_ID":62314,"ELEMENT_SET_NO":999,"REV_AT_EPOCH":7103,"BSTAR":0.00040197,"MEAN_MOTION_DOT":0.00011565,"MEAN_MOTION_DDOT":0},{"OBJECT_NAME":"STARLINK-32627","OBJECT_ID":"2024-239Q","EPOCH":"2026-03-20T10:11:52.102176","MEAN_MOTION":15.30204641,"ECCENTRICITY":0.0001254,"INCLINATION":53.1579,"RA_OF_ASC_NODE":144.2818,"ARG_OF_PERICENTER":109.722,"MEAN_ANOMALY":250.3916,"EPHEMERIS_TYPE":0,"CLASSIFICATION_TYPE":"U","NORAD_CAT_ID":62315,"ELEMENT_SET_NO":999,"REV_AT_EPOCH":7102,"BSTAR":0.00041911,"MEAN_MOTION_DOT":0.00012076,"MEAN_MOTION_DDOT":0},{"OBJECT_NAME":"STARLINK-32596","OBJECT_ID":"2024-239R","EPOCH":"2026-03-20T13:09:20.628288","MEAN_MOTION":15.30255415,"ECCENTRICITY":0.0001948,"INCLINATION":53.1568,"RA_OF_ASC_NODE":143.6788,"ARG_OF_PERICENTER":77.666,"MEAN_ANOMALY":282.4559,"EPHEMERIS_TYPE":0,"CLASSIFICATION_TYPE":"U","NORAD_CAT_ID":62316,"ELEMENT_SET_NO":999,"REV_AT_EPOCH":7104,"BSTAR":0.0011187,"MEAN_MOTION_DOT":0.00032979,"MEAN_MOTION_DDOT":0},{"OBJECT_NAME":"STARLINK-32519","OBJECT_ID":"2024-239S","EPOCH":"2026-03-20T10:27:38.564064","MEAN_MOTION":15.30197322,"ECCENTRICITY":0.0001286,"INCLINATION":53.1565,"RA_OF_ASC_NODE":130.9017,"ARG_OF_PERICENTER":88.8088,"MEAN_ANOMALY":271.306,"EPHEMERIS_TYPE":0,"CLASSIFICATION_TYPE":"U","NORAD_CAT_ID":62317,"ELEMENT_SET_NO":999,"REV_AT_EPOCH":7121,"BSTAR":0.00034889,"MEAN_MOTION_DOT":9.987e-5,"MEAN_MOTION_DDOT":0},{"OBJECT_NAME":"STARLINK-32527","OBJECT_ID":"2024-239U","EPOCH":"2026-03-20T10:24:35.731296","MEAN_MOTION":15.30196781,"ECCENTRICITY":0.0001066,"INCLINATION":53.1561,"RA_OF_ASC_NODE":130.8898,"ARG_OF_PERICENTER":91.4826,"MEAN_ANOMALY":268.6297,"EPHEMERIS_TYPE":0,"CLASSIFICATION_TYPE":"U","NORAD_CAT_ID":62319,"ELEMENT_SET_NO":999,"REV_AT_EPOCH":7121,"BSTAR":0.00023117,"MEAN_MOTION_DOT":6.493e-5,"MEAN_MOTION_DDOT":0},{"OBJECT_NAME":"STARLINK-32481","OBJECT_ID":"2024-239V","EPOCH":"2026-03-20T12:07:44.770656","MEAN_MOTION":15.30207369,"ECCENTRICITY":0.0001359,"INCLINATION":53.1572,"RA_OF_ASC_NODE":130.6279,"ARG_OF_PERICENTER":89.8718,"MEAN_ANOMALY":270.2439,"EPHEMERIS_TYPE":0,"CLASSIFICATION_TYPE":"U","NORAD_CAT_ID":62320,"ELEMENT_SET_NO":999,"REV_AT_EPOCH":7122,"BSTAR":-0.00011712,"MEAN_MOTION_DOT":-3.827e-5,"MEAN_MOTION_DDOT":0},{"OBJECT_NAME":"STARLINK-32645","OBJECT_ID":"2024-239W","EPOCH":"2026-03-20T09:05:44.445696","MEAN_MOTION":15.30197684,"ECCENTRICITY":0.000137,"INCLINATION":53.1565,"RA_OF_ASC_NODE":131.26,"ARG_OF_PERICENTER":90.4159,"MEAN_ANOMALY":269.6999,"EPHEMERIS_TYPE":0,"CLASSIFICATION_TYPE":"U","NORAD_CAT_ID":62321,"ELEMENT_SET_NO":999,"REV_AT_EPOCH":7120,"BSTAR":0.00020761,"MEAN_MOTION_DOT":5.794e-5,"MEAN_MOTION_DDOT":0},{"OBJECT_NAME":"STARLINK-32654","OBJECT_ID":"2024-239X","EPOCH":"2026-03-20T09:18:41.545440","MEAN_MOTION":15.30204434,"ECCENTRICITY":9.67e-5,"INCLINATION":53.1572,"RA_OF_ASC_NODE":144.0956,"ARG_OF_PERICENTER":79.6252,"MEAN_ANOMALY":280.4858,"EPHEMERIS_TYPE":0,"CLASSIFICATION_TYPE":"U","NORAD_CAT_ID":62322,"ELEMENT_SET_NO":999,"REV_AT_EPOCH":7102,"BSTAR":0.00036316,"MEAN_MOTION_DOT":0.00010413,"MEAN_MOTION_DDOT":0}]
