STARLINK-32649          
1 62305U 24239E   26079.43008200  .00025137  00000+0  85829-3 0  9999
2 62305  53.1608 143.6584 0000993  83.3967 276.7147 15.30187044 71037
STARLINK-32633          
1 62306U 24239F   26079.45962582  .00003276  00000+0  12268-3 0  9991
2 62306  53.1562 143.8349 0001221  70.0305 290.0827 15.30202580 71039
STARLINK-32646          
1 62307U 24239G   26079.44324559  .00008871  00000+0  31130-3 0  9992
2 62307  53.1575 130.9510 0001467  64.2161 295.8991 15.30199366 71210
STARLINK-32706          
1 62308U 24239H   26079.42386299  .00017706  00000+0  60837-3 0  9993
2 62308  53.1579 144.3235 0001134  97.3848 262.7282 15.30206866 71027
STARLINK-32678          
1 62309U 24239J   26079.54338675  .00018573  00000+0  63745-3 0  9996
2 62309  53.1585 130.8664 0001221  82.1764 277.9376 15.30209679 71226
STARLINK-32696          
1 62310U 24239K   26079.42069756  .00005072  00000+0  18326-3 0  9991
2 62310  53.1583 144.3072 0000899  91.2504 268.8599 15.30196005 71024
STARLINK-32700          
1 62311U 24239L   26079.54022685  .00032800  00000+0  11134-2 0  9993
2 62311  53.1594 130.8498 0001272  56.4607 303.6515 15.30238116 71219
STARLINK-32698          
1 62312U 24239M   26079.42702752  .00012116  00000+0  42043-3 0  9993
2 62312  53.1588 144.3399 0000716  88.5654 271.5428 15.30206542 71026
STARLINK-32634          
1 62313U 24239N   26079.38109722  .00006927  00000+0  24579-3 0  9994
2 62313  53.1578 131.2739 0001178  93.2410 266.8725 15.30196754 71205
STARLINK-32651          
1 62314U 24239P   26079.45751642  .00011565  00000+0  40197-3 0  9995
2 62314  53.1574 143.8219 0001199  87.1003 273.0134 15.30200363 71034
STARLINK-32627          
1 62315U 24239Q   26079.42490859  .00012076  00000+0  41911-3 0  9996
2 62315  53.1579 144.2818 0001254 109.7220 250.3916 15.30204641 71022
STARLINK-32596          
1 62316U 24239R   26079.54815542  .00032979  00000+0  11187-2 0  9995
2 62316  53.1568 143.6788 0001948  77.6660 282.4559 15.30255415 71047
STARLINK-32519          
1 62317U 24239S   26079.43586301  .00009987  00000+0  34889-3 0  9990
2 62317  53.1565 130.9017 0001286  88.8088 271.3060 15.30197322 71217
STARLINK-32527          
1 62319U 24239U   26079.43374689  .00006493  00000+0  23117-3 0  9997
2 62319  53.1561 130.8898 0001066  91.4826 268.6297 15.30196781 71216
STARLINK-32481          
1 62320U 24239V   26079.50537929 -.00003827  00000+0 -11712-3 0  9993
2 62320  53.1572 130.6279 0001359  89.8718 270.2439 15.30207369 71220
STARLINK-32645          
1 62321U 24239W   26079.37898664  .00005794  00000+0  20761-3 0  9992
2 62321  53.1565 131.2600 0001370  90.4159 269.6999 15.30197684 71207
STARLINK-32654          
1 62322U 24239X   26079.38798085  .00010413  00000+0  36316-3 0  9997
2 62322  53.1572 144.0956 0000967  79.6252 280.4858 15.30204434 71023
